[{"OBJECT_NAME":"SL-8 R/B","OBJECT_ID":"1979-089B","EPOCH":"2026-03-30T03:17:24.692640","MEAN_MOTION":14.42363843,"ECCENTRICITY":0.0016717,"INCLINATION":74.0689,"RA_OF_ASC_NODE":53.1895,"ARG_OF_PERICENTER":223.2069,"MEAN_ANOMALY":136.7777,"EPHEMERIS_TYPE":0,"CLASSIFICATION_TYPE":"U","NORAD_CAT_ID":11574,"ELEMENT_SET_NO":999,"REV_AT_EPOCH":43905,"BSTAR":0.00013688,"MEAN_MOTION_DOT":4.27e-6,"MEAN_MOTION_DDOT":0},{"OBJECT_NAME":"SL-14 R/B","OBJECT_ID":"1980-005B","EPOCH":"2026-03-30T01:30:47.716992","MEAN_MOTION":14.90953678,"ECCENTRICITY":0.0017245,"INCLINATION":82.5111,"RA_OF_ASC_NODE":287.9057,"ARG_OF_PERICENTER":95.1093,"MEAN_ANOMALY":265.2095,"EPHEMERIS_TYPE":0,"CLASSIFICATION_TYPE":"U","NORAD_CAT_ID":11672,"ELEMENT_SET_NO":999,"REV_AT_EPOCH":47952,"BSTAR":7.2621e-5,"MEAN_MOTION_DOT":7.44e-6,"MEAN_MOTION_DDOT":0},{"OBJECT_NAME":"SL-8 R/B","OBJECT_ID":"1981-003B","EPOCH":"2026-03-29T23:53:18.451680","MEAN_MOTION":15.11879258,"ECCENTRICITY":0.0260731,"INCLINATION":82.9325,"RA_OF_ASC_NODE":271.2335,"ARG_OF_PERICENTER":108.0114,"MEAN_ANOMALY":254.9717,"EPHEMERIS_TYPE":0,"CLASSIFICATION_TYPE":"U","NORAD_CAT_ID":12139,"ELEMENT_SET_NO":999,"REV_AT_EPOCH":31774,"BSTAR":0.0007119,"MEAN_MOTION_DOT":0.00028472,"MEAN_MOTION_DDOT":0},{"OBJECT_NAME":"SL-3 R/B","OBJECT_ID":"1981-046B","EPOCH":"2026-03-30T00:39:26.064000","MEAN_MOTION":15.42493252,"ECCENTRICITY":0.0018186,"INCLINATION":81.228,"RA_OF_ASC_NODE":265.3089,"ARG_OF_PERICENTER":310.1268,"MEAN_ANOMALY":49.8381,"EPHEMERIS_TYPE":0,"CLASSIFICATION_TYPE":"U","NORAD_CAT_ID":12465,"ELEMENT_SET_NO":999,"REV_AT_EPOCH":44156,"BSTAR":0.00035994,"MEAN_MOTION_DOT":0.00015727,"MEAN_MOTION_DDOT":0},{"OBJECT_NAME":"SL-3 R/B","OBJECT_ID":"1981-103B","EPOCH":"2026-03-30T05:24:22.591872","MEAN_MOTION":15.2161934,"ECCENTRICITY":0.0012813,"INCLINATION":81.1611,"RA_OF_ASC_NODE":189.3425,"ARG_OF_PERICENTER":212.9255,"MEAN_ANOMALY":147.118,"EPHEMERIS_TYPE":0,"CLASSIFICATION_TYPE":"U","NORAD_CAT_ID":12904,"ELEMENT_SET_NO":999,"REV_AT_EPOCH":97635,"BSTAR":0.00034487,"MEAN_MOTION_DOT":7.828e-5,"MEAN_MOTION_DDOT":0},{"OBJECT_NAME":"SL-3 R/B","OBJECT_ID":"1982-013B","EPOCH":"2026-03-30T03:49:30.137376","MEAN_MOTION":15.22197423,"ECCENTRICITY":0.0023577,"INCLINATION":81.1734,"RA_OF_ASC_NODE":136.7769,"ARG_OF_PERICENTER":110.2467,"MEAN_ANOMALY":250.1303,"EPHEMERIS_TYPE":0,"CLASSIFICATION_TYPE":"U","NORAD_CAT_ID":13068,"ELEMENT_SET_NO":999,"REV_AT_EPOCH":40746,"BSTAR":0.00021257,"MEAN_MOTION_DOT":4.944e-5,"MEAN_MOTION_DDOT":0},{"OBJECT_NAME":"SL-3 R/B","OBJECT_ID":"1982-039B","EPOCH":"2026-03-30T03:08:35.821824","MEAN_MOTION":15.1019566,"ECCENTRICITY":0.0028528,"INCLINATION":81.1568,"RA_OF_ASC_NODE":192.392,"ARG_OF_PERICENTER":256.7659,"MEAN_ANOMALY":103.0383,"EPHEMERIS_TYPE":0,"CLASSIFICATION_TYPE":"U","NORAD_CAT_ID":13154,"ELEMENT_SET_NO":999,"REV_AT_EPOCH":38472,"BSTAR":0.0002219,"MEAN_MOTION_DOT":3.681e-5,"MEAN_MOTION_DDOT":0},{"OBJECT_NAME":"SL-3 R/B","OBJECT_ID":"1982-079B","EPOCH":"2026-03-30T04:55:10.113024","MEAN_MOTION":15.2507329,"ECCENTRICITY":0.0025463,"INCLINATION":81.1487,"RA_OF_ASC_NODE":168.854,"ARG_OF_PERICENTER":97.3793,"MEAN_ANOMALY":263.0335,"EPHEMERIS_TYPE":0,"CLASSIFICATION_TYPE":"U","NORAD_CAT_ID":13403,"ELEMENT_SET_NO":999,"REV_AT_EPOCH":38082,"BSTAR":0.00027305,"MEAN_MOTION_DOT":6.917e-5,"MEAN_MOTION_DDOT":0},{"OBJECT_NAME":"SL-14 R/B","OBJECT_ID":"1982-092B","EPOCH":"2026-03-30T02:28:23.868192","MEAN_MOTION":14.86684765,"ECCENTRICITY":0.0019108,"INCLINATION":82.5656,"RA_OF_ASC_NODE":122.3027,"ARG_OF_PERICENTER":230.6385,"MEAN_ANOMALY":182.6228,"EPHEMERIS_TYPE":0,"CLASSIFICATION_TYPE":"U","NORAD_CAT_ID":13553,"ELEMENT_SET_NO":999,"REV_AT_EPOCH":33196,"BSTAR":5.7379e-5,"MEAN_MOTION_DOT":5.36e-6,"MEAN_MOTION_DDOT":0},{"OBJECT_NAME":"SL-3 R/B","OBJECT_ID":"1983-010B","EPOCH":"2026-03-30T03:21:00.194112","MEAN_MOTION":15.47045558,"ECCENTRICITY":0.0015831,"INCLINATION":81.1055,"RA_OF_ASC_NODE":337.1649,"ARG_OF_PERICENTER":341.0882,"MEAN_ANOMALY":18.9773,"EPHEMERIS_TYPE":0,"CLASSIFICATION_TYPE":"U","NORAD_CAT_ID":13819,"ELEMENT_SET_NO":999,"REV_AT_EPOCH":36110,"BSTAR":0.00037465,"MEAN_MOTION_DOT":0.00019081,"MEAN_MOTION_DDOT":0},{"OBJECT_NAME":"SL-3 R/B","OBJECT_ID":"1983-075B","EPOCH":"2026-03-30T02:35:10.731840","MEAN_MOTION":15.38900441,"ECCENTRICITY":0.0022379,"INCLINATION":97.6136,"RA_OF_ASC_NODE":94.4655,"ARG_OF_PERICENTER":152.0792,"MEAN_ANOMALY":208.1659,"EPHEMERIS_TYPE":0,"CLASSIFICATION_TYPE":"U","NORAD_CAT_ID":14208,"ELEMENT_SET_NO":999,"REV_AT_EPOCH":33329,"BSTAR":0.00039246,"MEAN_MOTION_DOT":0.00015159,"MEAN_MOTION_DDOT":0},{"OBJECT_NAME":"COSMOS 1536","OBJECT_ID":"1984-013A","EPOCH":"2026-03-30T01:47:34.980288","MEAN_MOTION":15.24103128,"ECCENTRICITY":0.0013468,"INCLINATION":82.5411,"RA_OF_ASC_NODE":87.5766,"ARG_OF_PERICENTER":202.9906,"MEAN_ANOMALY":157.073,"EPHEMERIS_TYPE":0,"CLASSIFICATION_TYPE":"U","NORAD_CAT_ID":14699,"ELEMENT_SET_NO":999,"REV_AT_EPOCH":27572,"BSTAR":0.00041201,"MEAN_MOTION_DOT":0.00010067,"MEAN_MOTION_DDOT":0},{"OBJECT_NAME":"SL-14 R/B","OBJECT_ID":"1984-027B","EPOCH":"2026-03-30T02:18:35.432352","MEAN_MOTION":14.85998379,"ECCENTRICITY":0.0016482,"INCLINATION":82.542,"RA_OF_ASC_NODE":225.8723,"ARG_OF_PERICENTER":265.531,"MEAN_ANOMALY":94.4023,"EPHEMERIS_TYPE":0,"CLASSIFICATION_TYPE":"U","NORAD_CAT_ID":14820,"ELEMENT_SET_NO":999,"REV_AT_EPOCH":25066,"BSTAR":7.5265e-5,"MEAN_MOTION_DOT":6.83e-6,"MEAN_MOTION_DDOT":0},{"OBJECT_NAME":"SL-8 R/B","OBJECT_ID":"1985-006B","EPOCH":"2026-03-30T03:15:18.547776","MEAN_MOTION":14.37798071,"ECCENTRICITY":0.0017627,"INCLINATION":74.0453,"RA_OF_ASC_NODE":223.5235,"ARG_OF_PERICENTER":135.3872,"MEAN_ANOMALY":36.3467,"EPHEMERIS_TYPE":0,"CLASSIFICATION_TYPE":"U","NORAD_CAT_ID":15483,"ELEMENT_SET_NO":999,"REV_AT_EPOCH":15696,"BSTAR":0.00013047,"MEAN_MOTION_DOT":3.68e-6,"MEAN_MOTION_DDOT":0},{"OBJECT_NAME":"SL-12 R/B(2)","OBJECT_ID":"1985-042D","EPOCH":"2026-03-30T03:43:44.458752","MEAN_MOTION":14.21988244,"ECCENTRICITY":0.0032851,"INCLINATION":71.109,"RA_OF_ASC_NODE":44.4877,"ARG_OF_PERICENTER":94.2058,"MEAN_ANOMALY":278.9618,"EPHEMERIS_TYPE":0,"CLASSIFICATION_TYPE":"U","NORAD_CAT_ID":15772,"ELEMENT_SET_NO":999,"REV_AT_EPOCH":11730,"BSTAR":4.522e-5,"MEAN_MOTION_DOT":5.3e-7,"MEAN_MOTION_DDOT":0},{"OBJECT_NAME":"SL-14 R/B","OBJECT_ID":"1985-069B","EPOCH":"2026-03-30T00:10:47.730432","MEAN_MOTION":14.86455289,"ECCENTRICITY":0.0020085,"INCLINATION":82.5305,"RA_OF_ASC_NODE":5.8331,"ARG_OF_PERICENTER":122.4796,"MEAN_ANOMALY":237.8365,"EPHEMERIS_TYPE":0,"CLASSIFICATION_TYPE":"U","NORAD_CAT_ID":15945,"ELEMENT_SET_NO":999,"REV_AT_EPOCH":17585,"BSTAR":6.5034e-5,"MEAN_MOTION_DOT":6.01e-6,"MEAN_MOTION_DDOT":0},{"OBJECT_NAME":"SL-16 R/B","OBJECT_ID":"1985-097B","EPOCH":"2026-03-30T02:41:28.183200","MEAN_MOTION":14.16603523,"ECCENTRICITY":0.0009418,"INCLINATION":71.0007,"RA_OF_ASC_NODE":97.5568,"ARG_OF_PERICENTER":235.9476,"MEAN_ANOMALY":189.8905,"EPHEMERIS_TYPE":0,"CLASSIFICATION_TYPE":"U","NORAD_CAT_ID":16182,"ELEMENT_SET_NO":999,"REV_AT_EPOCH":9012,"BSTAR":-3.4703e-5,"MEAN_MOTION_DOT":-1.17e-6,"MEAN_MOTION_DDOT":0}]
