SL-8 R/B                
1 11574U 79089B   26089.13709135  .00000427  00000+0  13688-3 0  9996
2 11574  74.0689  53.1895 0016717 223.2069 136.7777 14.42363843439058
SL-14 R/B               
1 11672U 80005B   26089.06305228  .00000744  00000+0  72621-4 0  9997
2 11672  82.5111 287.9057 0017245  95.1093 265.2095 14.90953678479529
SL-8 R/B                
1 12139U 81003B   26088.99535245  .00028472  00000+0  71190-3 0  9997
2 12139  82.9325 271.2335 0260731 108.0114 254.9717 15.11879258317748
SL-3 R/B                
1 12465U 81046B   26089.02738500  .00015727  00000+0  35994-3 0  9991
2 12465  81.2280 265.3089 0018186 310.1268  49.8381 15.42493252441569
SL-3 R/B                
1 12904U 81103B   26089.22526148  .00007828  00000+0  34487-3 0  9997
2 12904  81.1611 189.3425 0012813 212.9255 147.1180 15.21619340976353
SL-3 R/B                
1 13068U 82013B   26089.15937659  .00004944  00000+0  21257-3 0  9992
2 13068  81.1734 136.7769 0023577 110.2467 250.1303 15.22197423407469
SL-3 R/B                
1 13154U 82039B   26089.13097016  .00003681  00000+0  22190-3 0  9992
2 13154  81.1568 192.3920 0028528 256.7659 103.0383 15.10195660384722
SL-3 R/B                
1 13403U 82079B   26089.20497816  .00006917  00000+0  27305-3 0  9991
2 13403  81.1487 168.8540 0025463  97.3793 263.0335 15.25073290380829
SL-14 R/B               
1 13553U 82092B   26089.10305403  .00000536  00000+0  57379-4 0  9997
2 13553  82.5656 122.3027 0019108 230.6385 182.6228 14.86684765331960
SL-3 R/B                
1 13819U 83010B   26089.13958558  .00019081  00000+0  37465-3 0  9999
2 13819  81.1055 337.1649 0015831 341.0882  18.9773 15.47045558361101
SL-3 R/B                
1 14208U 83075B   26089.10776310  .00015159  00000+0  39246-3 0  9995
2 14208  97.6136  94.4655 0022379 152.0792 208.1659 15.38900441333297
COSMOS 1536             
1 14699U 84013A   26089.07471042  .00010067  00000+0  41201-3 0  9999
2 14699  82.5411  87.5766 0013468 202.9906 157.0730 15.24103128275724
SL-14 R/B               
1 14820U 84027B   26089.09624343  .00000683  00000+0  75265-4 0  9997
2 14820  82.5420 225.8723 0016482 265.5310  94.4023 14.85998379250664
SL-8 R/B                
1 15483U 85006B   26089.13563134  .00000368  00000+0  13047-3 0  9995
2 15483  74.0453 223.5235 0017627 135.3872  36.3467 14.37798071156963
SL-12 R/B(2)            
1 15772U 85042D   26089.15537568  .00000053  00000+0  45220-4 0  9990
2 15772  71.1090  44.4877 0032851  94.2058 278.9618 14.21988244117309
SL-14 R/B               
1 15945U 85069B   26089.00749688  .00000601  00000+0  65034-4 0  9997
2 15945  82.5305   5.8331 0020085 122.4796 237.8365 14.86455289175857
SL-16 R/B               
1 16182U 85097B   26089.11213175 -.00000117  00000+0 -34703-4 0  9994
2 16182  71.0007  97.5568 0009418 235.9476 189.8905 14.16603523 90126
